<?xml version="1.0" encoding="UTF-8"?>
<kml xmlns="http://www.opengis.net/kml/2.2" xmlns:gx="http://www.google.com/kml/ext/2.2">
	<Document id="TbuluKmlVersion2">
		<name><![CDATA[Gokyo→第五湖]]></name>
		<Style id="TrackStyle_n">
			<IconStyle>
				<Icon>
					<href>https://files.2bulu.com/f/d1?downParams=BYohR0x5OLAr0OBxohfNOA%3D%3D%0A</href>
				</Icon>
			</IconStyle>
			<LineStyle>
				<color>ee0000ff</color>
				<width>5.000000</width>
			</LineStyle>
		</Style>
		<Style id="TrackStyle_h">
			<IconStyle>
				<Icon>
					<href>https://files.2bulu.com/f/d1?downParams=BYohR0x5OLAr0OBxohfNOA%3D%3D%0A</href>
				</Icon>
			</IconStyle>
			<LineStyle>
				<color>ff0000ff</color>
				<width>7.000000</width>
			</LineStyle>
		</Style>
		<StyleMap id="TrackStyle">
			<Pair>
				<key>normal</key>
				<styleUrl>#TrackStyle_n</styleUrl>
			</Pair>
			<Pair>
				<key>highlight</key>
				<styleUrl>#TrackStyle_h</styleUrl>
			</Pair>
		</StyleMap>
		<Style id="LineStringStyle">
			<LineStyle>
				<color>dd5cba55</color>
				<width>6.000000</width>
			</LineStyle>
		</Style>
		<Style id="startPointStyle">
			<IconStyle>
				<Icon>
					<href>https://files.2bulu.com/f/d1?downParams=n%2BVE0NaFmzwndk%2BZ75NU9A%3D%3D%0A</href>
				</Icon>
			</IconStyle>
		</Style>
		<Style id="endPointStyle">
			<IconStyle>
				<Icon>
					<href>https://files.2bulu.com/f/d1?downParams=0Q3GJ5o%2FHpsr0OBxohfNOA%3D%3D%0A</href>
				</Icon>
			</IconStyle>
		</Style>
		<Style id="MarkerStylePicture">
			<IconStyle>
				<Icon>
					<href>https://files.2bulu.com/f/d1?downParams=vMzvc3dTBl0r0OBxohfNOA%3D%3D%0A</href>
				</Icon>
			</IconStyle>
			<LabelStyle>
				<color>ff00ffff</color>
			</LabelStyle>
		</Style>
		<Style id="MarkerStyleSound">
			<IconStyle>
				<Icon>
					<href>https://files.2bulu.com/f/d1?downParams=poL0RfxWHTIr0OBxohfNOA%3D%3D%0A</href>
				</Icon>
			</IconStyle>
			<LabelStyle>
				<color>ff00ffff</color>
			</LabelStyle>
		</Style>
		<Style id="MarkerStyleVideo">
			<IconStyle>
				<Icon>
					<href>https://files.2bulu.com/f/d1?downParams=vMzvc3dTBl0r0OBxohfNOA%3D%3D%0A</href>
				</Icon>
			</IconStyle>
			<LabelStyle>
				<color>ff00ffff</color>
			</LabelStyle>
		</Style>
		<Style id="MarkerStyleText">
			<IconStyle>
				<Icon>
					<href>https://files.2bulu.com/f/d1?downParams=s2An6%2B3%2BIWUr0OBxohfNOA%3D%3D%0A</href>
				</Icon>
			</IconStyle>
			<LabelStyle>
				<color>ff00ffff</color>
			</LabelStyle>
		</Style>
		<ExtendedData>
			<Data name="TrackId">
				<value>65387401</value>
			</Data>
			<Data name="OriginTrackId">
				<value>65387401</value>
			</Data>
			<Data name="SportTypeId">
				<value>-1</value>
			</Data>
			<Data name="SportTypeName">
				<value><![CDATA[其它]]></value>
			</Data>
			<Data name="OperationType">
				<value>7</value>
			</Data>
			<Data name="Privacy">
				<value>0</value>
			</Data>
			<Data name="TrackTypeId">
				<value>0</value>
			</Data>
			<Data name="TrackTags">
				<value><![CDATA[外部导入,拆分获得]]></value>
			</Data>
			<Data name="PosStartName">
				<value><![CDATA[红旗峰]]></value>
			</Data>
			<Data name="PosEndName">
				<value><![CDATA[红旗峰]]></value>
			</Data>
			<Data name="Distance">
				<value>4707.910905204084</value>
			</Data>
			<Data name="ElevationGain">
				<value>170</value>
			</Data>
			<Data name="ElevationLoss">
				<value>171</value>
			</Data>
			<Data name="ProductVersion">
				<value>9.2.2</value>
			</Data>
			<Data name="ContextInfo">
				<value>region:zh_CN;lan:zh-Hans;model:iPhone17,2;system:18.3.1;app:2bulu-V7.9.0;tag:NotRecord</value>
			</Data>
			<Data name="CreaterId">
				<value>60626349</value>
			</Data>
			<Data name="CreaterName">
				<value><![CDATA[橘子菌菌🍊]]></value>
			</Data>
			<Data name="CreaterIcon">
				<value>1377701598</value>
			</Data>
			<Data name="OriginCreaterId">
				<value>60626349</value>
			</Data>
			<Data name="OriginCreaterName">
			</Data>
			<Data name="OriginCreaterNickname">
				<value><![CDATA[橘子菌菌🍊]]></value>
			</Data>
			<Data name="OriginCreaterIcon">
				<value>1377701598</value>
			</Data>
			<Data name="ThumbnailId">
				<value>1410943871</value>
			</Data>
			<Data name="Step">
				<value>0</value>
			</Data>
			<Data name="Calorie">
				<value>0.000000</value>
			</Data>
			<Data name="Mileage">
				<value>4707.910905</value>
			</Data>
			<Data name="Source">
				<value>0</value>
			</Data>
			<Data name="FragmentId">
				<value>0</value>
			</Data>
			<Data name="color">
				<value>dd55ba5c</value>
			</Data>
		</ExtendedData>
		<Folder id="TbuluHisPointFolder">
			<name><![CDATA[标注点]]></name>
			<Placemark id="startPoint">
				<name><![CDATA[起点]]></name>
				<description><![CDATA[<div>经度：86.693687</div><div>纬度：27.955269</div><div>海拔：4754.000000</div><div>时间：2001-01-01 08:00:00</div>]]></description>
				<styleUrl>#startPointStyle</styleUrl>
				<Point>
					<coordinates>86.693687,27.955269,4754.000000</coordinates>
				</Point>
			</Placemark>
			<Placemark id="endPoint">
				<name><![CDATA[终点]]></name>
				<description><![CDATA[<div>经度：86.693810</div><div>纬度：27.954092</div><div>海拔：4753.000000</div><div>时间：2001-01-01 08:00:00</div>]]></description>
				<styleUrl>#endPointStyle</styleUrl>
				<Point>
					<coordinates>86.693810,27.954092,4753.000000</coordinates>
				</Point>
			</Placemark>
			<Placemark id="realPoint">
				<name><![CDATA[第五湖]]></name>
				<description><![CDATA[<div>经度：86.690536</div><div>纬度：27.972107</div><div>海拔：4863.000000</div><div>时间：1970-01-01 08:00:00</div>]]></description>
				<styleUrl>MarkerStyleText</styleUrl>
				<ExtendedData>
					<Data name="Type">
						<value>Point</value>
					</Data>
					<Data name="ServerId">
						<value>0</value>
					</Data>
					<Data name="PosType">
						<value>0</value>
					</Data>
					<Data name="description">
					</Data>
					<Data name="Longtitude">
						<value>86.690536</value>
					</Data>
					<Data name="Latitude">
						<value>27.972107</value>
					</Data>
					<Data name="Altitude">
						<value>4863.000000</value>
					</Data>
					<Data name="Speed">
						<value>0.000000</value>
					</Data>
					<Data name="Accuracy">
						<value>0.000000</value>
					</Data>
					<Data name="Time">
						<value>0</value>
					</Data>
					<Data name="FileId">
						<value>0</value>
					</Data>
					<Data name="FileSize">
						<value>0</value>
					</Data>
					<Data name="FileName">
					</Data>
					<Data name="FileType">
						<value>-1</value>
					</Data>
					<Data name="FilePath">
					</Data>
				</ExtendedData>
				<Point>
					<coordinates>86.690536,27.972107,4863.000000</coordinates>
				</Point>
			</Placemark>
			<Placemark id="realPoint">
				<name><![CDATA[Gokyo高乔]]></name>
				<description><![CDATA[<div>经度：86.693810</div><div>纬度：27.954182</div><div>海拔：4754.000000</div><div>时间：1970-01-01 08:00:00</div>]]></description>
				<styleUrl>MarkerStyleText</styleUrl>
				<ExtendedData>
					<Data name="Type">
						<value>Point</value>
					</Data>
					<Data name="ServerId">
						<value>0</value>
					</Data>
					<Data name="PosType">
						<value>0</value>
					</Data>
					<Data name="description">
					</Data>
					<Data name="Longtitude">
						<value>86.693810</value>
					</Data>
					<Data name="Latitude">
						<value>27.954182</value>
					</Data>
					<Data name="Altitude">
						<value>4754.000000</value>
					</Data>
					<Data name="Speed">
						<value>0.000000</value>
					</Data>
					<Data name="Accuracy">
						<value>0.000000</value>
					</Data>
					<Data name="Time">
						<value>0</value>
					</Data>
					<Data name="FileId">
						<value>0</value>
					</Data>
					<Data name="FileSize">
						<value>0</value>
					</Data>
					<Data name="FileName">
					</Data>
					<Data name="FileType">
						<value>-1</value>
					</Data>
					<Data name="FilePath">
					</Data>
				</ExtendedData>
				<Point>
					<coordinates>86.693810,27.954182,4754.000000</coordinates>
				</Point>
			</Placemark>
		</Folder>
		<Folder id="TbuluLineStringFolder">
			<name><![CDATA[导航线]]></name>
			<Placemark>
				<styleUrl>#LineStringStyle</styleUrl>
				<Style>
					<LineStyle>
						<color>dd5cba55</color>
						<width>6.000000</width>
					</LineStyle>
				</Style>
				<LineString>
					<coordinates>86.693687,27.955269,4754.000000 86.693665,27.955359,4754.000000 86.693649,27.955450,4754.000000 86.693665,27.955542,4755.000000 86.693672,27.955635,4755.000000 86.693665,27.955730,4757.000000 86.693626,27.955814,4758.000000 86.693596,27.955902,4759.000000 86.693535,27.955973,4760.000000 86.693634,27.955986,4760.000000 86.693573,27.956060,4760.000000 86.693504,27.956129,4760.000000 86.693451,27.956209,4760.000000 86.693359,27.956263,4759.000000 86.693283,27.956324,4760.000000 86.693199,27.956381,4761.000000 86.693146,27.956459,4762.000000 86.693069,27.956518,4763.000000 86.693008,27.956593,4764.000000 86.692970,27.956676,4765.000000 86.692909,27.956755,4765.000000 86.692841,27.956829,4766.000000 86.692795,27.956911,4765.000000 86.692757,27.956999,4765.000000 86.692719,27.957087,4766.000000 86.692680,27.957170,4765.000000 86.692619,27.957247,4764.000000 86.692558,27.957319,4764.000000 86.692482,27.957384,4765.000000 86.692421,27.957470,4767.000000 86.692345,27.957531,4766.000000 86.692261,27.957584,4767.000000 86.692169,27.957624,4768.000000 86.692108,27.957697,4768.000000 86.692039,27.957767,4768.000000 86.691978,27.957842,4769.000000 86.691948,27.957930,4770.000000 86.691879,27.958002,4771.000000 86.691864,27.958092,4772.000000 86.691872,27.958183,4774.000000 86.691849,27.958277,4775.000000 86.691818,27.958364,4776.000000 86.691765,27.958443,4777.000000 86.691696,27.958509,4777.000000 86.691643,27.958590,4777.000000 86.691566,27.958654,4776.000000 86.691536,27.958740,4777.000000 86.691528,27.958832,4778.000000 86.691536,27.958927,4779.000000 86.691483,27.959013,4781.000000 86.691437,27.959091,4782.000000 86.691406,27.959185,4782.000000 86.691460,27.959269,4782.000000 86.691414,27.959352,4783.000000 86.691360,27.959433,4784.000000 86.691414,27.959517,4785.000000 86.691444,27.959606,4785.000000 86.691437,27.959698,4786.000000 86.691391,27.959785,4786.000000 86.691353,27.959873,4787.000000 86.691338,27.959965,4788.000000 86.691322,27.960056,4788.000000 86.691322,27.960150,4789.000000 86.691330,27.960241,4789.000000 86.691261,27.960312,4791.000000 86.691246,27.960402,4791.000000 86.691277,27.960493,4791.000000 86.691223,27.960573,4791.000000 86.691254,27.960663,4792.000000 86.691231,27.960754,4792.000000 86.691208,27.960846,4791.000000 86.691231,27.960936,4790.000000 86.691238,27.961029,4789.000000 86.691238,27.961123,4788.000000 86.691254,27.961214,4787.000000 86.691284,27.961304,4787.000000 86.691315,27.961393,4786.000000 86.691345,27.961479,4789.000000 86.691353,27.961575,4785.000000 86.691376,27.961666,4786.000000 86.691399,27.961754,4786.000000 86.691414,27.961845,4786.000000 86.691444,27.961933,4787.000000 86.691429,27.962025,4787.000000 86.691437,27.962114,4788.000000 86.691467,27.962212,4788.000000 86.691513,27.962296,4788.000000 86.691505,27.962391,4788.000000 86.691536,27.962481,4789.000000 86.691536,27.962576,4790.000000 86.691505,27.962664,4791.000000 86.691513,27.962753,4791.000000 86.691505,27.962845,4793.000000 86.691521,27.962936,4793.000000 86.691513,27.963026,4793.000000 86.691505,27.963120,4793.000000 86.691483,27.963211,4793.000000 86.691467,27.963301,4795.000000 86.691460,27.963390,4795.000000 86.691452,27.963484,4794.000000 86.691437,27.963577,4794.000000 86.691437,27.963671,4794.000000 86.691422,27.963762,4794.000000 86.691414,27.963854,4794.000000 86.691406,27.963947,4795.000000 86.691391,27.964039,4795.000000 86.691437,27.964123,4796.000000 86.691460,27.964214,4797.000000 86.691452,27.964310,4797.000000 86.691460,27.964403,4798.000000 86.691444,27.964495,4798.000000 86.691460,27.964584,4800.000000 86.691498,27.964670,4800.000000 86.691528,27.964760,4800.000000 86.691483,27.964848,4802.000000 86.691475,27.964939,4804.000000 86.691452,27.965029,4804.000000 86.691444,27.965118,4805.000000 86.691437,27.965208,4806.000000 86.691383,27.965292,4808.000000 86.691360,27.965380,4809.000000 86.691307,27.965462,4811.000000 86.691292,27.965551,4812.000000 86.691299,27.965645,4812.000000 86.691261,27.965731,4815.000000 86.691261,27.965820,4816.000000 86.691307,27.965900,4818.000000 86.691307,27.965992,4820.000000 86.691269,27.966076,4821.000000 86.691254,27.966166,4821.000000 86.691193,27.966244,4822.000000 86.691185,27.966339,4822.000000 86.691231,27.966427,4822.000000 86.691292,27.966501,4823.000000 86.691345,27.966576,4822.000000 86.691383,27.966661,4825.000000 86.691299,27.966721,4826.000000 86.691246,27.966799,4825.000000 86.691177,27.966867,4826.000000 86.691139,27.966953,4827.000000 86.691109,27.967043,4828.000000 86.691063,27.967129,4829.000000 86.691010,27.967207,4828.000000 86.690910,27.967245,4826.000000 86.690849,27.967323,4825.000000 86.690796,27.967403,4825.000000 86.690758,27.967489,4825.000000 86.690727,27.967579,4825.000000 86.690659,27.967649,4826.000000 86.690666,27.967745,4826.000000 86.690636,27.967831,4829.000000 86.690559,27.967892,4830.000000 86.690559,27.967987,4830.000000 86.690529,27.968077,4831.000000 86.690460,27.968142,4833.000000 86.690407,27.968220,4834.000000 86.690369,27.968306,4835.000000 86.690331,27.968393,4836.000000 86.690331,27.968485,4837.000000 86.690292,27.968575,4838.000000 86.690315,27.968662,4839.000000 86.690308,27.968756,4841.000000 86.690331,27.968847,4843.000000 86.690353,27.968935,4844.000000 86.690399,27.969017,4845.000000 86.690437,27.969103,4845.000000 86.690468,27.969191,4845.000000 86.690475,27.969286,4847.000000 86.690498,27.969381,4849.000000 86.690483,27.969473,4850.000000 86.690491,27.969568,4849.000000 86.690460,27.969658,4853.000000 86.690453,27.969751,4853.000000 86.690407,27.969831,4856.000000 86.690399,27.969925,4856.000000 86.690353,27.970007,4858.000000 86.690331,27.970097,4861.000000 86.690315,27.970186,4862.000000 86.690247,27.970263,4863.000000 86.690193,27.970339,4866.000000 86.690178,27.970428,4865.000000 86.690147,27.970518,4866.000000 86.690102,27.970602,4868.000000 86.690063,27.970688,4870.000000 86.690163,27.970695,4870.000000 86.690262,27.970732,4867.000000 86.690247,27.970823,4862.000000 86.690208,27.970905,4858.000000 86.690201,27.971003,4855.000000 86.690147,27.971085,4857.000000 86.690109,27.971170,4856.000000 86.690025,27.971222,4855.000000 86.689995,27.971308,4857.000000 86.689995,27.971401,4860.000000 86.689941,27.971476,4861.000000 86.689934,27.971571,4860.000000 86.689919,27.971663,4861.000000 86.689919,27.971758,4865.000000 86.689888,27.971844,4867.000000 86.689842,27.971931,4869.000000 86.689796,27.972015,4871.000000 86.689758,27.972099,4868.000000 86.689857,27.972076,4873.000000 86.689964,27.972094,4877.000000 86.690071,27.972099,4877.000000 86.690178,27.972090,4879.000000 86.690262,27.972136,4878.000000 86.690285,27.972227,4879.000000 86.690277,27.972321,4881.000000 86.690262,27.972410,4881.000000 86.690331,27.972342,4883.000000 86.690414,27.972277,4883.000000 86.690468,27.972200,4882.000000 86.690529,27.972126,4881.000000 86.690536,27.972107,4879.000000 86.690575,27.972038,4879.000000 86.690628,27.971956,4878.000000 86.690651,27.971869,4877.000000 86.690697,27.971777,4876.000000 86.690704,27.971684,4874.000000 86.690720,27.971594,4872.000000 86.690773,27.971514,4871.000000 86.690742,27.971424,4872.000000 86.690712,27.971340,4872.000000 86.690712,27.971247,4871.000000 86.690773,27.971169,4871.000000 86.690758,27.971079,4873.000000 86.690712,27.970997,4872.000000 86.690689,27.970903,4869.000000 86.690689,27.970806,4867.000000 86.690605,27.970745,4866.000000 86.690544,27.970673,4867.000000 86.690521,27.970583,4867.000000 86.690491,27.970497,4865.000000 86.690392,27.970457,4864.000000 86.690346,27.970369,4863.000000 86.690315,27.970274,4862.000000 86.690308,27.970181,4862.000000 86.690323,27.970091,4860.000000 86.690369,27.970007,4858.000000 86.690407,27.969917,4857.000000 86.690384,27.969824,4855.000000 86.690369,27.969732,4854.000000 86.690300,27.969660,4854.000000 86.690277,27.969570,4857.000000 86.690292,27.969481,4857.000000 86.690285,27.969385,4856.000000 86.690323,27.969296,4853.000000 86.690353,27.969212,4851.000000 86.690369,27.969116,4849.000000 86.690369,27.969017,4846.000000 86.690315,27.968927,4843.000000 86.690300,27.968836,4841.000000 86.690292,27.968744,4841.000000 86.690300,27.968647,4839.000000 86.690308,27.968555,4837.000000 86.690331,27.968460,4836.000000 86.690353,27.968370,4834.000000 86.690384,27.968279,4834.000000 86.690445,27.968206,4833.000000 86.690529,27.968142,4832.000000 86.690575,27.968060,4830.000000 86.690582,27.967966,4829.000000 86.690613,27.967876,4828.000000 86.690681,27.967808,4827.000000 86.690659,27.967710,4826.000000 86.690712,27.967628,4825.000000 86.690765,27.967545,4825.000000 86.690811,27.967461,4826.000000 86.690865,27.967377,4826.000000 86.690926,27.967299,4826.000000 86.691017,27.967247,4827.000000 86.691071,27.967167,4827.000000 86.691109,27.967083,4827.000000 86.691147,27.966995,4827.000000 86.691185,27.966906,4826.000000 86.691261,27.966839,4825.000000 86.691330,27.966764,4823.000000 86.691391,27.966688,4823.000000 86.691338,27.966604,4822.000000 86.691277,27.966532,4821.000000 86.691216,27.966454,4821.000000 86.691177,27.966368,4820.000000 86.691200,27.966278,4820.000000 86.691216,27.966190,4820.000000 86.691277,27.966108,4820.000000 86.691330,27.966030,4820.000000 86.691299,27.965940,4818.000000 86.691261,27.965851,4817.000000 86.691284,27.965757,4816.000000 86.691292,27.965660,4813.000000 86.691307,27.965569,4813.000000 86.691345,27.965483,4813.000000 86.691368,27.965391,4811.000000 86.691399,27.965300,4809.000000 86.691452,27.965219,4809.000000 86.691452,27.965124,4808.000000 86.691460,27.965033,4807.000000 86.691498,27.964943,4806.000000 86.691528,27.964849,4804.000000 86.691513,27.964748,4804.000000 86.691490,27.964657,4802.000000 86.691475,27.964565,4802.000000 86.691460,27.964464,4800.000000 86.691452,27.964367,4800.000000 86.691460,27.964277,4800.000000 86.691429,27.964178,4799.000000 86.691429,27.964085,4800.000000 86.691429,27.963987,4800.000000 86.691444,27.963896,4800.000000 86.691429,27.963800,4800.000000 86.691414,27.963705,4801.000000 86.691444,27.963610,4800.000000 86.691467,27.963514,4800.000000 86.691490,27.963415,4801.000000 86.691490,27.963322,4800.000000 86.691490,27.963221,4798.000000 86.691505,27.963125,4798.000000 86.691505,27.963024,4798.000000 86.691513,27.962934,4798.000000 86.691513,27.962839,4797.000000 86.691505,27.962749,4796.000000 86.691513,27.962656,4795.000000 86.691544,27.962564,4795.000000 86.691505,27.962469,4794.000000 86.691475,27.962383,4793.000000 86.691475,27.962292,4793.000000 86.691429,27.962210,4793.000000 86.691429,27.962114,4793.000000 86.691444,27.962019,4794.000000 86.691437,27.961926,4794.000000 86.691429,27.961830,4793.000000 86.691399,27.961740,4793.000000 86.691376,27.961649,4793.000000 86.691353,27.961555,4793.000000 86.691345,27.961462,4793.000000 86.691307,27.961372,4794.000000 86.691254,27.961292,4794.000000 86.691246,27.961201,4795.000000 86.691254,27.961107,4795.000000 86.691246,27.961012,4797.000000 86.691223,27.960915,4797.000000 86.691223,27.960821,4799.000000 86.691246,27.960732,4800.000000 86.691231,27.960640,4800.000000 86.691261,27.960548,4798.000000 86.691254,27.960447,4799.000000 86.691269,27.960348,4798.000000 86.691322,27.960258,4796.000000 86.691322,27.960161,4795.000000 86.691322,27.960066,4795.000000 86.691307,27.959969,4794.000000 86.691277,27.959871,4793.000000 86.691299,27.959778,4792.000000 86.691299,27.959679,4791.000000 86.691338,27.959591,4791.000000 86.691383,27.959509,4790.000000 86.691376,27.959415,4790.000000 86.691452,27.959343,4790.000000 86.691422,27.959255,4789.000000 86.691406,27.959162,4787.000000 86.691467,27.959078,4787.000000 86.691521,27.958996,4786.000000 86.691528,27.958904,4784.000000 86.691544,27.958813,4783.000000 86.691551,27.958715,4781.000000 86.691628,27.958647,4782.000000 86.691681,27.958570,4781.000000 86.691750,27.958496,4779.000000 86.691788,27.958410,4779.000000 86.691849,27.958342,4775.000000 86.691856,27.958246,4773.000000 86.691849,27.958155,4772.000000 86.691872,27.958063,4769.000000 86.691925,27.957985,4769.000000 86.691971,27.957903,4768.000000 86.692017,27.957821,4767.000000 86.692078,27.957748,4767.000000 86.692154,27.957684,4765.000000 86.692230,27.957621,4765.000000 86.692322,27.957575,4765.000000 86.692543,27.957361,4764.000000 86.692596,27.957275,4762.000000 86.692673,27.957203,4762.000000 86.692719,27.957113,4763.000000 86.692749,27.957026,4761.000000 86.692780,27.956938,4760.000000 86.692833,27.956854,4761.000000 86.692902,27.956776,4761.000000 86.692955,27.956697,4761.000000 86.693008,27.956612,4760.000000 86.693069,27.956530,4758.000000 86.693153,27.956469,4757.000000 86.693207,27.956392,4756.000000 86.693283,27.956326,4755.000000 86.693367,27.956270,4754.000000 86.693428,27.956194,4754.000000 86.693481,27.956116,4754.000000 86.693527,27.956026,4755.000000 86.693542,27.955935,4755.000000 86.693619,27.955870,4754.000000 86.693626,27.955772,4753.000000 86.693665,27.955685,4753.000000 86.693665,27.955587,4752.000000 86.693665,27.955492,4751.000000 86.693672,27.955400,4750.000000 86.693687,27.955305,4750.000000 86.693703,27.955214,4749.000000 86.693741,27.955122,4749.000000 86.693787,27.955040,4749.000000 86.693748,27.954945,4750.000000 86.693748,27.954847,4750.000000 86.693741,27.954752,4751.000000 86.693703,27.954657,4751.000000 86.693695,27.954559,4752.000000 86.693657,27.954466,4752.000000 86.693604,27.954386,4752.000000 86.693581,27.954292,4751.000000 86.693581,27.954197,4751.000000 86.693634,27.954115,4754.000000 86.693741,27.954102,4756.000000 86.693756,27.954191,4763.000000 86.693825,27.954121,4756.000000 86.693848,27.954033,4756.000000 86.693909,27.953959,4753.000000 86.693848,27.954046,4749.000000 86.693771,27.954109,4745.000000 86.693703,27.954176,4768.000000 86.693810,27.954187,4769.000000 86.693810,27.954182,4758.000000 86.693848,27.954096,4758.000000 86.693893,27.954016,4759.000000 86.693886,27.954105,4761.000000 86.693993,27.954109,4769.000000 86.693893,27.954142,4761.000000 86.693794,27.954153,4763.000000 86.693771,27.954243,4770.000000 86.693726,27.954161,4757.000000 86.693787,27.954254,4769.000000 86.693703,27.954315,4771.000000 86.693825,27.954224,4772.000000 86.693893,27.954151,4767.000000 86.693947,27.954052,4772.000000 86.693993,27.953968,4764.000000 86.693901,27.954018,4764.000000 86.693932,27.953854,4753.000000 86.693909,27.953945,4757.000000 86.693855,27.953964,4770.000000 86.693810,27.954092,4753.000000 </coordinates>
				</LineString>
			</Placemark>
		</Folder>
	</Document>
</kml>
